OBJECT_NAME,OBJECT_ID,EPOCH,MEAN_MOTION,ECCENTRICITY,INCLINATION,RA_OF_ASC_NODE,ARG_OF_PERICENTER,MEAN_ANOMALY,EPHEMERIS_TYPE,CLASSIFICATION_TYPE,NORAD_CAT_ID,ELEMENT_SET_NO,REV_AT_EPOCH,BSTAR,MEAN_MOTION_DOT,MEAN_MOTION_DDOT
STARLINK-37624,2026-154Q,2026-07-22T15:27:46.873728,15.80922836,.00010663,53.1574,255.4959,74.2339,285.8801,0,U,69833,999,399,.1107844E-2,.22424E-2,0
STARLINK-37769,2026-154R,2026-07-22T13:55:39.877824,15.80900092,.00008579,53.1575,255.8072,104.7261,255.3857,0,U,69834,999,398,.79414471E-3,.159159E-2,0
STARLINK-37247,2026-154S,2026-07-23T03:33:54.731232,15.81127177,.0001259,53.1574,252.9504,137.2355,222.8766,0,U,69835,999,407,.25690336E-2,.546118E-2,0
STARLINK-37569,2026-154T,2026-07-23T00:30:45.499680,15.80915434,.00009293,53.1578,253.5810,31.8803,328.2276,0,U,69836,999,405,.11369857E-2,.23024E-2,0
STARLINK-37587,2026-154U,2026-07-23T03:31:44.939424,15.81139888,.00014564,53.1571,252.9404,129.8028,230.3124,0,U,69837,999,407,.25961988E-2,.552636E-2,0
STARLINK-37590,2026-154V,2026-07-23T03:30:40.343328,15.81051912,.0000732,53.1575,252.9358,121.8416,238.2678,0,U,69838,999,407,.19311424E-2,.402056E-2,0
STARLINK-37589,2026-154W,2026-07-22T13:50:16.070496,15.80901362,.00014221,53.1576,255.7820,29.3033,330.8070,0,U,69839,999,398,.81242746E-3,.162921E-2,0
STARLINK-37487,2026-154X,2026-07-22T20:26:52.248768,15.80944959,.00016496,53.1583,253.9198,78.5664,281.5544,0,U,69840,999,403,.13890497E-2,.283587E-2,0
STARLINK-37433,2026-154Y,2026-07-22T14:22:53.053824,15.80846950,.00015447,53.1585,255.1883,49.2052,310.9104,0,U,69841,999,399,.12589149E-2,.254938E-2,0
STARLINK-37588,2026-154Z,2026-07-23T03:57:51.539904,15.81131688,.00018833,53.1580,252.3152,134.5505,225.5672,0,U,69842,999,408,.25539265E-2,.542769E-2,0
STARLINK-37579,2026-154AA,2026-07-23T03:58:15.130560,15.81017187,.00006072,53.1584,252.3177,190.4486,169.6524,0,U,69843,999,408,.1867706E-2,.387545E-2,0
STARLINK-37584,2026-154AB,2026-07-23T03:57:17.495712,15.80986553,.0001436,53.1586,252.3135,113.6779,246.4394,0,U,69844,999,408,.16499192E-2,.339859E-2,0
STARLINK-37606,2026-154AC,2026-07-23T03:55:59.124000,15.81112031,.00016614,53.1584,252.3065,143.2769,216.8368,0,U,69845,999,408,.23625484E-2,.49902E-2,0
STARLINK-37603,2026-154AD,2026-07-22T20:19:58.054080,15.80988116,.00014777,53.1587,253.8863,65.7388,294.3789,0,U,69846,999,403,.19769499E-2,.4108E-2,0
STARLINK-37595,2026-154AE,2026-07-23T05:24:51.757056,15.80954258,.00012337,53.1588,251.9785,90.7719,269.3445,0,U,69847,999,409,.10254332E-2,.207398E-2,0
QIANFAN-219,2026-155A,2026-07-23T05:25:23.178144,14.23742569,.00311783,89.0061,60.0326,194.6622,165.3669,0,U,69848,999,252,.80552309E-4,.199E-5,0
QIANFAN-220,2026-155B,2026-07-23T06:31:08.233248,14.17599332,.00302402,89.0060,60.0393,195.1248,164.9040,0,U,69849,999,252,.80080795E-4,.178E-5,0
QIANFAN-221,2026-155C,2026-07-23T05:15:46.075392,14.26649758,.00312446,89.0061,60.0316,196.1465,163.8736,0,U,69850,999,252,.83397772E-4,.217E-5,0
QIANFAN-222,2026-155D,2026-07-23T06:17:45.402720,14.18563836,.00294227,89.0061,60.0382,196.2777,163.7470,0,U,69851,999,252,.90620798E-4,.203E-5,0
QIANFAN-223,2026-155E,2026-07-23T06:09:38.606112,14.18586358,.00293059,89.0064,60.0377,195.7651,164.2629,0,U,69852,999,252,.84133896E-4,.189E-5,0
QIANFAN-224,2026-155F,2026-07-23T06:00:53.289792,14.20220857,.00303438,89.0049,60.0345,196.1662,163.8563,0,U,69853,999,252,.87865053E-4,.203E-5,0
QIANFAN-225,2026-155G,2026-07-23T05:59:28.612608,14.19333009,.00297371,89.0060,60.0360,195.3879,164.6410,0,U,69854,999,252,.75188026E-4,.173E-5,0
QIANFAN-226,2026-155H,2026-07-23T05:56:18.562848,14.19637337,.0030495,89.0060,60.0356,195.7630,164.2614,0,U,69855,999,252,.85811777E-4,.196E-5,0
QIANFAN-227,2026-155J,2026-07-23T05:47:27.875040,14.19929145,.00304322,89.0060,60.0349,195.3137,164.7135,0,U,69856,999,252,.84000776E-4,.193E-5,0
QIANFAN-228,2026-155K,2026-07-23T05:44:17.147040,14.20222917,.00302411,89.0061,60.0347,195.7583,164.2669,0,U,69857,999,252,.68447409E-4,.161E-5,0
QIANFAN-229,2026-155L,2026-07-23T05:31:09.215328,14.21820660,.0030054,89.0059,60.0330,195.1203,164.9093,0,U,69858,999,252,.35547595E-4,.93E-6,0
QIANFAN-230,2026-155M,2026-07-23T06:25:44.187456,14.17864670,.00294698,89.0055,60.0380,195.9963,164.0298,0,U,69859,999,252,.73156454E-4,.164E-5,0
QIANFAN-231,2026-155N,2026-07-23T05:29:28.378752,14.23685346,.0031336,89.0062,60.0333,194.7108,165.3176,0,U,69860,999,252,.72026525E-4,.18E-5,0
QIANFAN-232,2026-155P,2026-07-23T05:25:29.852544,14.23943061,.00305259,89.0060,60.0324,196.0911,163.9315,0,U,69861,999,252,.81799593E-4,.203E-5,0
QIANFAN-233,2026-155Q,2026-07-23T05:22:46.933248,14.23733907,.00304893,89.0062,60.0325,195.6853,164.3397,0,U,69862,999,252,.68587629E-4,.172E-5,0
