STARLINK-37624          
1 69833U 26154Q   26203.64429252  .00224240  00000+0  11078-2 0  9996
2 69833  53.1574 255.4959 0001066  74.2339 285.8801 15.80922836  3993
STARLINK-37769          
1 69834U 26154R   26203.58032266  .00159159  00000+0  79414-3 0  9990
2 69834  53.1575 255.8072 0000857 104.7261 255.3857 15.80900092  3987
STARLINK-37247          
1 69835U 26154S   26204.14855013  .00546118  00000+0  25690-2 0  9998
2 69835  53.1574 252.9504 0001259 137.2355 222.8766 15.81127177  4072
STARLINK-37569          
1 69836U 26154T   26204.02135995  .00230240  00000+0  11370-2 0  9992
2 69836  53.1578 253.5810 0000929  31.8803 328.2276 15.80915434  4059
STARLINK-37587          
1 69837U 26154U   26204.14704791  .00552636  00000+0  25962-2 0  9990
2 69837  53.1571 252.9404 0001456 129.8028 230.3124 15.81139888  4077
STARLINK-37590          
1 69838U 26154V   26204.14630027  .00402056  00000+0  19311-2 0  9992
2 69838  53.1575 252.9358 0000732 121.8416 238.2678 15.81051912  4071
STARLINK-37589          
1 69839U 26154W   26203.57657489  .00162921  00000+0  81243-3 0  9998
2 69839  53.1576 255.7820 0001422  29.3033 330.8070 15.80901362  3988
STARLINK-37487          
1 69840U 26154X   26203.85199362  .00283587  00000+0  13890-2 0  9996
2 69840  53.1583 253.9198 0001649  78.5664 281.5544 15.80944959  4037
STARLINK-37433          
1 69841U 26154Y   26203.59922516  .00254938  00000+0  12589-2 0  9995
2 69841  53.1585 255.1883 0001544  49.2052 310.9104 15.80846950  3990
STARLINK-37588          
1 69842U 26154Z   26204.16517986  .00542769  00000+0  25539-2 0  9992
2 69842  53.1580 252.3152 0001883 134.5505 225.5672 15.81131688  4089
STARLINK-37579          
1 69843U 26154AA  26204.16545290  .00387545  00000+0  18677-2 0  9996
2 69843  53.1584 252.3177 0000607 190.4486 169.6524 15.81017187  4084
STARLINK-37584          
1 69844U 26154AB  26204.16478583  .00339859  00000+0  16499-2 0  9992
2 69844  53.1586 252.3135 0001436 113.6779 246.4394 15.80986553  4084
STARLINK-37606          
1 69845U 26154AC  26204.16387875  .00499020  00000+0  23625-2 0  9992
2 69845  53.1584 252.3065 0001661 143.2769 216.8368 15.81112031  4088
STARLINK-37603          
1 69846U 26154AD  26203.84719970  .00410800  00000+0  19769-2 0  9995
2 69846  53.1587 253.8863 0001477  65.7388 294.3789 15.80988116  4031
STARLINK-37595          
1 69847U 26154AE  26204.22559904  .00207398  00000+0  10254-2 0  9994
2 69847  53.1588 251.9785 0001233  90.7719 269.3445 15.80954258  4098
QIANFAN-219             
1 69848U 26155A   26204.22596271  .00000199  00000+0  80552-4 0  9994
2 69848  89.0061  60.0326 0031178 194.6622 165.3669 14.23742569  2526
QIANFAN-220             
1 69849U 26155B   26204.27162307  .00000178  00000+0  80081-4 0  9993
2 69849  89.0060  60.0393 0030240 195.1248 164.9040 14.17599332  2528
QIANFAN-221             
1 69850U 26155C   26204.21928328  .00000217  00000+0  83398-4 0  9990
2 69850  89.0061  60.0316 0031244 196.1465 163.8736 14.26649758  2521
QIANFAN-222             
1 69851U 26155D   26204.26233105  .00000203  00000+0  90621-4 0  9990
2 69851  89.0061  60.0382 0029422 196.2777 163.7470 14.18563836  2524
QIANFAN-223             
1 69852U 26155E   26204.25669683  .00000189  00000+0  84134-4 0  9999
2 69852  89.0064  60.0377 0029305 195.7651 164.2629 14.18586358  2523
QIANFAN-224             
1 69853U 26155F   26204.25061678  .00000203  00000+0  87865-4 0  9991
2 69853  89.0049  60.0345 0030343 196.1662 163.8563 14.20220857  2527
QIANFAN-225             
1 69854U 26155G   26204.24963672  .00000173  00000+0  75188-4 0  9997
2 69854  89.0060  60.0360 0029737 195.3879 164.6410 14.19333009  2526
QIANFAN-226             
1 69855U 26155H   26204.24743707  .00000196  00000+0  85812-4 0  9993
2 69855  89.0060  60.0356 0030495 195.7630 164.2614 14.19637337  2527
QIANFAN-227             
1 69856U 26155J   26204.24129485  .00000193  00000+0  84001-4 0  9991
2 69856  89.0060  60.0349 0030432 195.3137 164.7135 14.19929145  2523
QIANFAN-228             
1 69857U 26155K   26204.23908735  .00000161  00000+0  68447-4 0  9995
2 69857  89.0061  60.0347 0030241 195.7583 164.2669 14.20222917  2522
QIANFAN-229             
1 69858U 26155L   26204.22996777  .00000093  00000+0  35548-4 0  9998
2 69858  89.0059  60.0330 0030054 195.1203 164.9093 14.21820660  2525
QIANFAN-230             
1 69859U 26155M   26204.26787254  .00000164  00000+0  73156-4 0  9997
2 69859  89.0055  60.0380 0029469 195.9963 164.0298 14.17864670  2528
QIANFAN-231             
1 69860U 26155N   26204.22880068  .00000180  00000+0  72027-4 0  9996
2 69860  89.0062  60.0333 0031336 194.7108 165.3176 14.23685346  2527
QIANFAN-232             
1 69861U 26155P   26204.22603996  .00000203  00000+0  81800-4 0  9995
2 69861  89.0060  60.0324 0030525 196.0911 163.9315 14.23943061  2522
QIANFAN-233             
1 69862U 26155Q   26204.22415432  .00000172  00000+0  68588-4 0  9995
2 69862  89.0062  60.0325 0030489 195.6853 164.3397 14.23733907  2526
